{"type": "FeatureCollection", "features": [ {"type": "Feature", "properties": {"norad_id": 35160, "name": "FENGYUN 1C DEB", "group": "fengyun-1c-debris", "lat": 61.92944962482346, "lon": -66.09646685078015, "alt_km": 855.6922836660533, "timestamp": "2025-12-08T03:50:07.284523+00:00", "meta": {"OBJECT_NAME": "FENGYUN 1C DEB", "OBJECT_ID": "1999-025DMQ", "EPOCH": "2025-12-06T01:06:31.144320", "MEAN_MOTION": 14.35929715, "ECCENTRICITY": 0.01759557, "INCLINATION": 99.1551, "RA_OF_ASC_NODE": 94.0576, "ARG_OF_PERICENTER": 259.0237, "MEAN_ANOMALY": 99.111, "EPHEMERIS_TYPE": 0, "CLASSIFICATION_TYPE": "U", "NORAD_CAT_ID": 35160, "ELEMENT_SET_NO": 999, "REV_AT_EPOCH": 64835, "BSTAR": 0.00080713756, "MEAN_MOTION_DOT": 2.737e-05, "MEAN_MOTION_DDOT": 0}, "tle": {"line1": "1 35160U 99025DMQ 25340.04619380  .00002737  00000+0  80714-3 0  9996", "line2": "2 35160  99.1551  94.0576 0175955 259.0237  99.1110 14.35929715648351"}}, "geometry": {"type": "Point", "coordinates": [-66.09646685078015, 61.92944962482346]}}, {"type": "Feature", "properties": {"norad_id": 35165, "name": "FENGYUN 1C DEB", "group": "fengyun-1c-debris", "lat": -72.89612513241393, "lon": 104.44433849673307, "alt_km": 800.659912305282, "timestamp": "2025-12-08T03:50:07.284533+00:00", "meta": {"OBJECT_NAME": "FENGYUN 1C DEB", "OBJECT_ID": "1999-025DMV", "EPOCH": "2025-11-30T05:14:00.190464", "MEAN_MOTION": 14.33570134, "ECCENTRICITY": 0.00218891, "INCLINATION": 98.8778, "RA_OF_ASC_NODE": 65.7738, "ARG_OF_PERICENTER": 100.7376, "MEAN_ANOMALY": 259.6273, "EPHEMERIS_TYPE": 0, "CLASSIFICATION_TYPE": "U", "NORAD_CAT_ID": 35165, "ELEMENT_SET_NO": 999, "REV_AT_EPOCH": 89541, "BSTAR": 0.0024382815, "MEAN_MOTION_DOT": 6.727e-05, "MEAN_MOTION_DDOT": 0}, "tle": {"line1": "1 35165U 99025DMV 25334.21805776  .00006727  00000+0  24383-2 0  9991", "line2": "2 35165  98.8778  65.7738 0021889 100.7376 259.6273 14.33570134895419"}}, "geometry": {"type": "Point", "coordinates": [104.44433849673307, -72.89612513241393]}}, {"type": "Feature", "properties": {"norad_id": 35167, "name": "FENGYUN 1C DEB", "group": "fengyun-1c-debris", "lat": 81.53811447712611, "lon": -116.85231122473007, "alt_km": 878.075501743645, "timestamp": "2025-12-08T03:50:07.284542+00:00", "meta": {"OBJECT_NAME": "FENGYUN 1C DEB", "OBJECT_ID": "1999-025DMX", "EPOCH": "2025-11-27T17:22:23.212128", "MEAN_MOTION": 14.31084388, "ECCENTRICITY": 0.02289339, "INCLINATION": 98.4496, "RA_OF_ASC_NODE": 325.3238, "ARG_OF_PERICENTER": 248.7447, "MEAN_ANOMALY": 108.915, "EPHEMERIS_TYPE": 0, "CLASSIFICATION_TYPE": "U", "NORAD_CAT_ID": 35167, "ELEMENT_SET_NO": 999, "REV_AT_EPOCH": 69805, "BSTAR": 0.00055665644, "MEAN_MOTION_DOT": 1.904e-05, "MEAN_MOTION_DDOT": 0}, "tle": {"line1": "1 35167U 99025DMX 25331.72387977  .00001904  00000+0  55666-3 0  9995", "line2": "2 35167  98.4496 325.3238 0228933 248.7447 108.9150 14.31084388698055"}}, "geometry": {"type": "Point", "coordinates": [-116.85231122473007, 81.53811447712611]}}, {"type": "Feature", "properties": {"norad_id": 35169, "name": "FENGYUN 1C DEB", "group": "fengyun-1c-debris", "lat": 45.874351648845405, "lon": -144.26650709536415, "alt_km": 663.6995238587042, "timestamp": "2025-12-08T03:50:07.284552+00:00", "meta": {"OBJECT_NAME": "FENGYUN 1C DEB", "OBJECT_ID": "1999-025DMZ", "EPOCH": "2025-12-05T11:24:48.463488", "MEAN_MOTION": 14.58604827, "ECCENTRICITY": 0.01525013, "INCLINATION": 99.1294, "RA_OF_ASC_NODE": 222.329, "ARG_OF_PERICENTER": 129.6073, "MEAN_ANOMALY": 231.8702, "EPHEMERIS_TYPE": 0, "CLASSIFICATION_TYPE": "U", "NORAD_CAT_ID": 35169, "ELEMENT_SET_NO": 999, "REV_AT_EPOCH": 65674, "BSTAR": 0.00095565714, "MEAN_MOTION_DOT": 5.168e-05, "MEAN_MOTION_DDOT": 0}, "tle": {"line1": "1 35169U 99025DMZ 25339.47556092  .00005168  00000+0  95566-3 0  9992", "line2": "2 35169  99.1294 222.3290 0152501 129.6073 231.8702 14.58604827656748"}}, "geometry": {"type": "Point", "coordinates": [-144.26650709536415, 45.874351648845405]}}, {"type": "Feature", "properties": {"norad_id": 35171, "name": "FENGYUN 1C DEB", "group": "fengyun-1c-debris", "lat": 78.77637233541269, "lon": 80.55149004351392, "alt_km": 940.1530509275881, "timestamp": "2025-12-08T03:50:07.284562+00:00", "meta": {"OBJECT_NAME": "FENGYUN 1C DEB", "OBJECT_ID": "1999-025DNB", "EPOCH": "2025-12-06T03:14:27.009312", "MEAN_MOTION": 13.94919296, "ECCENTRICITY": 0.01375813, "INCLINATION": 99.0086, "RA_OF_ASC_NODE": 131.6514, "ARG_OF_PERICENTER": 336.9909, "MEAN_ANOMALY": 22.5128, "EPHEMERIS_TYPE": 0, "CLASSIFICATION_TYPE": "U", "NORAD_CAT_ID": 35171, "ELEMENT_SET_NO": 999, "REV_AT_EPOCH": 88466, "BSTAR": 0.0026431679, "MEAN_MOTION_DOT": 3.801e-05, "MEAN_MOTION_DDOT": 0}, "tle": {"line1": "1 35171U 99025DNB 25340.13503483  .00003801  00000+0  26432-2 0  9993", "line2": "2 35171  99.0086 131.6514 0137581 336.9909  22.5128 13.94919296884661"}}, "geometry": {"type": "Point", "coordinates": [80.55149004351392, 78.77637233541269]}}, {"type": "Feature", "properties": {"norad_id": 35173, "name": "FENGYUN 1C DEB", "group": "fengyun-1c-debris", "lat": -79.08291604932049, "lon": 117.35075842181267, "alt_km": 880.3370742029547, "timestamp": "2025-12-08T03:50:07.284573+00:00", "meta": {"OBJECT_NAME": "FENGYUN 1C DEB", "OBJECT_ID": "1999-025DND", "EPOCH": "2025-12-06T00:11:15.437184", "MEAN_MOTION": 13.37277281, "ECCENTRICITY": 0.04906763, "INCLINATION": 99.7871, "RA_OF_ASC_NODE": 51.7832, "ARG_OF_PERICENTER": 229.9973, "MEAN_ANOMALY": 125.7105, "EPHEMERIS_TYPE": 0, "CLASSIFICATION_TYPE": "U", "NORAD_CAT_ID": 35173, "ELEMENT_SET_NO": 999, "REV_AT_EPOCH": 65739, "BSTAR": 0.0040782912, "MEAN_MOTION_DOT": 4.225e-05, "MEAN_MOTION_DDOT": 0}, "tle": {"line1": "1 35173U 99025DND 25340.00781756  .00004225  00000+0  40783-2 0  9998", "line2": "2 35173  99.7871  51.7832 0490676 229.9973 125.7105 13.37277281657393"}}, "geometry": {"type": "Point", "coordinates": [117.35075842181267, -79.08291604932049]}}, {"type": "Feature", "properties": {"norad_id": 35174, "name": "FENGYUN 1C DEB", "group": "fengyun-1c-debris", "lat": -28.76258357365647, "lon": -39.26031888673156, "alt_km": 650.4914179363495, "timestamp": "2025-12-08T03:50:07.284583+00:00", "meta": {"OBJECT_NAME": "FENGYUN 1C DEB", "OBJECT_ID": "1999-025DNE", "EPOCH": "2025-11-20T15:53:09.659040", "MEAN_MOTION": 14.97261972, "ECCENTRICITY": 0.01569814, "INCLINATION": 98.9653, "RA_OF_ASC_NODE": 295.6935, "ARG_OF_PERICENTER": 254.7539, "MEAN_ANOMALY": 103.6277, "EPHEMERIS_TYPE": 0, "CLASSIFICATION_TYPE": "U", "NORAD_CAT_ID": 35174, "ELEMENT_SET_NO": 999, "REV_AT_EPOCH": 89835, "BSTAR": 0.0019136785, "MEAN_MOTION_DOT": 0.00028569, "MEAN_MOTION_DDOT": 0}, "tle": {"line1": "1 35174U 99025DNE 25324.66191735  .00028569  00000+0  19137-2 0  9991", "line2": "2 35174  98.9653 295.6935 0156981 254.7539 103.6277 14.97261972898353"}}, "geometry": {"type": "Point", "coordinates": [-39.26031888673156, -28.76258357365647]}}, {"type": "Feature", "properties": {"norad_id": 35175, "name": "FENGYUN 1C DEB", "group": "fengyun-1c-debris", "lat": -27.072010308812, "lon": -4.939244538557155, "alt_km": 794.562203874485, "timestamp": "2025-12-08T03:50:07.284593+00:00", "meta": {"OBJECT_NAME": "FENGYUN 1C DEB", "OBJECT_ID": "1999-025DNF", "EPOCH": "2025-12-06T19:51:41.347296", "MEAN_MOTION": 14.21287312, "ECCENTRICITY": 0.00572889, "INCLINATION": 98.575, "RA_OF_ASC_NODE": 349.3441, "ARG_OF_PERICENTER": 297.4995, "MEAN_ANOMALY": 62.0367, "EPHEMERIS_TYPE": 0, "CLASSIFICATION_TYPE": "U", "NORAD_CAT_ID": 35175, "ELEMENT_SET_NO": 999, "REV_AT_EPOCH": 61151, "BSTAR": 0.00067060582, "MEAN_MOTION_DOT": 1.443e-05, "MEAN_MOTION_DDOT": 0}, "tle": {"line1": "1 35175U 99025DNF 25340.82756189  .00001443  00000+0  67061-3 0  9990", "line2": "2 35175  98.5750 349.3441 0057288 297.4995  62.0367 14.21287312611519"}}, "geometry": {"type": "Point", "coordinates": [-4.939244538557155, -27.072010308812]}}, {"type": "Feature", "properties": {"norad_id": 35176, "name": "FENGYUN 1C DEB", "group": "fengyun-1c-debris", "lat": 60.785186975758585, "lon": -46.51628888474983, "alt_km": 790.5017343539748, "timestamp": "2025-12-08T03:50:07.284602+00:00", "meta": {"OBJECT_NAME": "FENGYUN 1C DEB", "OBJECT_ID": "1999-025DNG", "EPOCH": "2025-12-07T05:30:55.334304", "MEAN_MOTION": 14.16982341, "ECCENTRICITY": 0.00547007, "INCLINATION": 98.5553, "RA_OF_ASC_NODE": 328.2048, "ARG_OF_PERICENTER": 72.2006, "MEAN_ANOMALY": 288.5127, "EPHEMERIS_TYPE": 0, "CLASSIFICATION_TYPE": "U", "NORAD_CAT_ID": 35176, "ELEMENT_SET_NO": 999, "REV_AT_EPOCH": 90850, "BSTAR": 0.0005910593, "MEAN_MOTION_DOT": 1.163e-05, "MEAN_MOTION_DDOT": 0}, "tle": {"line1": "1 35176U 99025DNG 25341.22980711  .00001163  00000+0  59106-3 0  9996", "line2": "2 35176  98.5553 328.2048 0054700  72.2006 288.5127 14.16982341908503"}}, "geometry": {"type": "Point", "coordinates": [-46.51628888474983, 60.785186975758585]}}, {"type": "Feature", "properties": {"norad_id": 35191, "name": "FENGYUN 1C DEB", "group": "fengyun-1c-debris", "lat": -60.90715869301191, "lon": 127.61400406896733, "alt_km": 861.7489416646777, "timestamp": "2025-12-08T03:50:07.284612+00:00", "meta": {"OBJECT_NAME": "FENGYUN 1C DEB", "OBJECT_ID": "1999-025DNX", "EPOCH": "2025-12-06T05:47:41.815680", "MEAN_MOTION": 13.91198801, "ECCENTRICITY": 0.01020618, "INCLINATION": 99.0152, "RA_OF_ASC_NODE": 322.3287, "ARG_OF_PERICENTER": 226.5904, "MEAN_ANOMALY": 132.6726, "EPHEMERIS_TYPE": 0, "CLASSIFICATION_TYPE": "U", "NORAD_CAT_ID": 35191, "ELEMENT_SET_NO": 999, "REV_AT_EPOCH": 87811, "BSTAR": 0.00035713054, "MEAN_MOTION_DOT": 4.26e-06, "MEAN_MOTION_DDOT": 0}, "tle": {"line1": "1 35191U 99025DNX 25340.24145620  .00000426  00000+0  35713-3 0  9995", "line2": "2 35191  99.0152 322.3287 0102061 226.5904 132.6726 13.91198801878115"}}, "geometry": {"type": "Point", "coordinates": [127.61400406896733, -60.90715869301191]}}]}